VA Station Number,Address,City,State,Zip
vha_358,1501 Roxas Boulevard,Pasay City,PH,1302
vha_402,1 VA Center,Augusta,ME,04330-6796
vha_402GA,163 Van Buren Road,Caribou,ME,04736-3567
vha_402GB,50 Union Street,Calais,ME,04619-1839
vha_402GC,431 Franklin Street,Rumford,ME,04276-2100
vha_402GD,655 Main Street,Saco,ME,04072-1543
vha_402GE,15 Challenger Drive,Lewiston,ME,04240-1041
vha_402GF,99 River Road,Lincoln,ME,04457-4012
vha_402HB,35 State Hospital Street,Bangor,ME,04401-8816
vha_402HC,144 Fore Street,Portland,ME,04101-4843
vha_402HL,241 Main Street,Bingham,ME,04920-4015
vha_402QA,197 East Main Street,Fort Kent,ME,04743-1409
vha_402QB,20 Hartford Street,Houlton,ME,04730-1891
vha_405,163 Veterans Drive,White River Junction,VT,5001
vha_405GA,186 North Street,Bennington,VT,05201-1874
vha_405GC,71 GSP Drive,Brattleboro,VT,05301-4452
vha_405HA,128 Lakeside Avenue,Burlington,VT,05401-5911
vha_405HC,264 Cottage Street,Littleton,NH,03561-9998
vha_405HE,640 Marlboro Street,Keene,NH,03431-4049
vha_405HF,232 West Street,Rutland,VT,05701-2850
vha_405QB,1734 Crawford Farm Road,Newport,VT,05855-4509
vha_436,3687 Veterans Drive,Fort Harrison,MT,59636-9703
vha_436A4,210 South Winchester Avenue,Miles City,MT,59301-4798
vha_436GA,118 East 7th Street,Anaconda,MT,59711-2953
vha_436GB,1400 29th Street South,Great Falls,MT,59405-5315
vha_436GC,2687 Palmer Street,Missoula,MT,59808-1710
vha_436GD,300 North Willson Avenue,Bozeman,MT,59715-3551
vha_436GF,31 Three Mile Drive,Kalispell,MT,59901-1400
vha_436GH,1766 Majestic Lane,Billings,MT,59102-6759
vha_436GI,630 2nd Avenue South,Glasgow,MT,59230-2304
vha_436GK,2000 Montana Avenue,Glendive,MT,59330-3700
vha_436GL,8 Second Avenue Southeast,Cut Bank,MT,59427-2909
vha_436GM,629 Northeast Main Street,Lewistown,MT,59457-2082
vha_436GN,1775 Spring Creek Lane,Billings,MT,59102-6754
vha_436HC,130 13th Street,Havre,MT,59501-5219
vha_436QA,299 Fairgrounds Road,Hamilton,MT,59840-3199
vha_436QB,440 West Laurel Avenue,Plentywood,MT,59254-1526
vha_436QC,2271 Deerfield Lane,Helena,MT,59601-8643
vha_436QD,5535 Haul Road,Browning,MT,59417-5412
vha_437,2101 Elm Street North,Fargo,ND,58102-2417
vha_437GA,1319 West 11th Street,Grafton,ND,58237-2141
vha_437GB,2700 State Street,Bismarck,ND,58503-0669
vha_437GC,1839 North Park Street,Fergus Falls,MN,56537-1247
vha_437GD,3400 South Broadway Street,Minot,ND,58701-1700
vha_437GE,1217 Anne Street NW,Bemidji,MN,56601-5113
vha_437GF,1542 16th Street West,Williston,ND,58801-3852
vha_437GI,3221 32nd Avenue South,Grand Forks,ND,58201-6075
vha_437GJ,766 Elks Drive,Dickinson,ND,58601-2916
vha_437GK,2430 20th Street Southwest,Jamestown,ND,58401-6201
vha_437GL,1031 7th Street Northeast,Devils Lake,ND,58301-2719
vha_437QA,721 1st Avenue North,Fargo,ND,58102-4903
vha_438,2501 West 22nd Street,Sioux Falls,SD,57105-5046
vha_438GA,1850 Royal Avenue,Spirit Lake,IA,51360-1092
vha_438GC,380 West Anchor Drive,Dakota Dunes,SD,57049-5273
vha_438GD,2301 8th Ave Northeast,Aberdeen,SD,57401-3253
vha_438GE,400 West South Dakota Highway 46,Wagner,SD,57380-9369
vha_438GF,4 19th Street Northeast,Watertown,SD,57201-3936
vha_442,2360 East Pershing Boulevard,Cheyenne,WY,82001-5356
vha_442GB,1116 10th Avenue,Sidney,NE,69162-2001
vha_442GC,2509 Research Boulevard,Fort Collins,CO,80526-8108
vha_442GD,5200 Hahns Peak Drive,Loveland,CO,80538-8852
vha_442HK,759 East Cole Street,Wheatland,WY,82201-8953
vha_442QA,1809 East Daley Street,Rawlins,WY,82301-5911
vha_442QB,908 West 25th Avenue,Torrington,WY,82240
vha_442QD,2901 Armory Road,Laramie,WY,82070-2937
vha_442QE,100 College Avenue,Sterling,CO,80751-2345
vha_459,459 Patterson Road,Honolulu,HI,96819-1522
vha_459GA,203 Ho'ohana Street,Kahului,HI,96732-2476
vha_459GB,45 Mohouli Street,Hilo,HI,96720-7210
vha_459GC,75-377 Hualalai Road,Kailua-Kona,HI,96740-9724
vha_459GD,4485 Pahe'e Street,Lihue,HI,96766-2018
vha_459GE,498 Chalan Palasyo,Agana Heights,GU,96910-6427
vha_459GF,Fiatele Teo Army Reserve Building,Pago Pago,AS,96799
vha_459GG,91-2135 Fort Weaver Road,Ewa Beach,HI,96706-1929
vha_459GH,Marina Heights Business Park - Garapan,Saipan,MP,96950-9998
vha_459QA,628-B Seventh Street,Lanai City,HI,96763
vha_459QB,280 Home Olu Place,Kaunakakai,HI,96748-0408
vha_460,1601 Kirkwood Highway,Wilmington,DE,19805-4917
vha_460GA,21748 Roth Avenue,Georgetown,DE,19947-2300
vha_460GC,1198 South Governors Avenue,Dover,DE,19904-6930
vha_460GD,1 Munro Avenue,Cape May,NJ,08204-5000
vha_460HE,1909 New Road,Northfield,NJ,08225-1537
vha_460HG,79 West Landis Avenue,Vineland,NJ,08360-8122
vha_460HK,1601 Kirkwood Highway,Wilmington,DE,19805-4917
vha_463,1201 North Muldoon Road,Anchorage,AK,99504-6104
vha_463GA,4076 Neeley Road,Fort Wainwright,AK,99703-1110
vha_463GB,240 Hospital Place,Soldotna,AK,99669-7559
vha_463GC,865 North Seward Meridian Parkway,Wasilla,AK,99654-7241
vha_463GD,4300 Bartlett Street,Homer,AK,99603-7005
vha_463GE,709 West 9th Street,Juneau,AK,99801-1807
vha_463QA,5955 Zeamer Avenue,Joint Base Elmendorf-Richardson,AK,99506-3702
vha_501,"1501 San Pedro Drive, Southeast",Albuquerque,NM,87108-5153
vha_501G2,624 University Avenue,Las Vegas,NM,87701-4252
vha_501GA,2410 West Main Street,Artesia,NM,88210-3716
vha_501GB,3605 English Road,Farmington,NM,87402-8303
vha_501GC,2950 Leslie Road,Silver City,NM,88061-7212
vha_501GD,2075 South NM Hwy 602,Gallup,NM,87301
vha_501GE,105 South Coronado Avenue,Espanola,NM,87532-2862
vha_501GH,1960 North Date Street,Truth or Consequences,NM,87901-3701
vha_501GI,3199 North White Sands Boulevard,Alamogordo,NM,88310-6151
vha_501GJ,1970 East Third Avenue,Durango,CO,81301-5025
vha_501GK,5152 Beckner Road,Sante Fe,NM,87505-3197
vha_501GM,"1760 Grande Boulevard, Southeast",Rio Rancho,NM,87124-1726
vha_501GN,1353 Paseo Del Pueblo Sur,Taos,NM,87571-5801
vha_501HB,1493 Whittier Street,Raton,NM,87740-2234
vha_502,2495 Shreveport Highway,Pineville,LA,71360-4044
vha_502GA,1907 Johnson Street,Jennings,LA,70546-3627
vha_502GB,3149 Ambassador Caffery Parkway,Lafayette,LA,70506-7209
vha_502GE,"3601 Gerstner Memorial Drive, Hwy 14",Lake Charles,LA,70607-3231
vha_502GF,3353 University Parkway,Leesville,LA,71446-9041
vha_502GG,740 Keyser Avenue,Natchitoches,LA,71457-6043
vha_502QB,309 Saint Julien Avenue,Lafayette,LA,70506-4655
vha_503,2907 Pleasant Valley Boulevard,Altoona,PA,16602-4305
vha_503GA,598 Galleria Drive,Johnstown,PA,15904-8900
vha_503GB,5690 Shaffer Road,DuBois,PA,15801-3870
vha_503GC,2581 Clyde Avenue,State College,PA,16801-7508
vha_503GD,13903 William Penn Highway,Mapleton Depot,PA,17052-9649
vha_503GE,1570 Oakland Avenue,Indiana,PA,15701-2429
vha_504,"6010 Amarillo Boulevard, West",Amarillo,TX,79106-1991
vha_504BY,6104 Avenue Q South Drive,Lubbock,TX,79412-3700
vha_504BZ,921 East Llano Estacado Boulevard,Clovis,NM,88101-3807
vha_504GA,1001 Highway 83 North,Childress,TX,79201-2322
vha_504HB,325 Denver Avenue,Dalhart,TX,79022-2711
vha_506,2215 Fuller Road,Ann Arbor,MI,48105-2303
vha_506GA,1200 South Detroit Avenue,Toledo,OH,43614-5903
vha_506GB,2360 South Linden Road,Flint,MI,48532-5483
vha_506GC,4328 Page Avenue,Michigan Center,MI,49254-1077
vha_506QA,3800 Packard Road,Ann Arbor,MI,48108-2073
vha_506QB,2500 Green Road,Ann Arbor,MI,48105-2073
vha_508,1670 Clairmont Road,Decatur,GA,30033-4004
vha_508GA,"1701 Hardee Avenue, Southwest",Atlanta,GA,30310-5110
vha_508GE,4175 Tanners Creek Drive,Flowery Branch,GA,30542-2816
vha_508GF,2041 Mesa Valley Way,Austell,GA,30106-6828
vha_508GG,175 Medical Boulevard,Stockbridge,GA,30281-5083
vha_508GH,455 Philip Boulevard,Lawrenceville,GA,30046-8766
vha_508GI,39-A Oak Hill Court,Newnan,GA,30265-2392
vha_508GJ,"1294 Highway 515, East",Blairsville,GA,30512-8599
vha_508GK,180 Martin Drive,Carrollton,GA,30117-2425
vha_508GL,30 Chateau Drive Southeast,Rome,GA,30161-7201
vha_508GM,934 East Church Street,Jasper,GA,30143-1926
vha_508GN,10155 Eagle Drive,Covington,GA,30014-3805
vha_508GO,2217 Roswell Road,Marietta,GA,30062-2957
vha_508GP,2400 Herodian Way Southeast,Smyrna,GA,30080-8581
vha_508QB,2675 North Martin Street,East Point,GA,30344-6948
vha_508QC,2296 Henderson Mill Road,Atlanta,GA,30345-2739
vha_508QD,1513 Cleveland Avenue,East Point,GA,30344-6948
vha_508QE,1970 Riverside Parkway,Lawrenceville,GA,30043-5937
vha_508QF,250 North Arcadia Avenue,Decatur,GA,30030-2115
vha_508QH,1800 Phoenix Boulevard,College Park,GA,30349-6055
vha_508QI,3101 Clairmont Road Northeast,Brookhaven,GA,30329-1044
vha_508QJ,2309 Parklake Drive Northeast,Atlanta,GA,30345-2914
vha_509,950 15th Street,Augusta,GA,30904-2608
vha_509A0,One Freedom Way,Augusta,GA,30904-6258
vha_509GA,"9249 Highway 29, South",Athens,GA,30601-6352
vha_509GB,951 Millbrook Avenue,Aiken,SC,29803-6526
vha_509QA,658 Northside Drive East,Statesboro,GA,30458-4828
vha_512,10 North Greene Street,Baltimore,MD,21201-1524
vha_512A5,59 Avenue D,Perry Point,MD,21902-0001
vha_512GA,830 Chesapeake Drive,Cambridge,MD,21613-9408
vha_512GC,808 Landmark Drive,Glen Burnie,MD,21061-4983
vha_512GD,3901 The Alameda,Baltimore,MD,21218-2100
vha_512GE,1701 Market Place,Pocomoke City,MD,21851-1738
vha_512GF,5235 King Avenue,Rosedale,MD,21237-4068
vha_512GG,2479 5th Street,Fort Meade,MD,20755
vha_512QA,209 West Fayette Street,Baltimore,MD,21201-3403
vha_515,5500 Armstrong Road,Battle Creek,MI,49037-7314
vha_515BY,5838 Metro Way Southwest,Wyoming,MI,49519-9619
vha_515GA,5000 Hakes Drive,Muskegon,MI,49441-5574
vha_515GB,2025 South Washington Avenue,Lansing,MI,48910-0828
vha_515GC,115 West Main Street,Benton Harbor,MI,49022-3663
vha_515QA,2025 South Washington Avenue,Lansing,MI,48910-0828
vha_515QB,620 Century Avenue Southwest,Grand Rapids,MI,49503-4977
vha_516,10000 Bay Pines Boulevard,Bay Pines,FL,33744-8200
vha_516BZ,2489 Diplomat Parkway East,Cape Coral,FL,33909-5422
vha_516GA,5682 Bee Ridge Road,Sarasota,FL,34233-1540
vha_516GB,840 Dr. Martin Luther King Jr. Street North,St. Petersburg,FL,33705-1214
vha_516GC,35209 US Hwy 19 North,Palm Harbor,FL,34684-1908
vha_516GD,5520 State Route 64,Bradenton,FL,34208-5526
vha_516GE,4161 Tamiami Trail,Port Charlotte,FL,33952-9254
vha_516GF,800 Goodlette Road North,Naples,FL,34102-5402
vha_516GH,5901 US Highway 27 South,Sebring,FL,33870-2117
vha_517,200 Veterans Avenue,Beckley,WV,25801-6444
vha_517GB,228 Shamrock Lane,Ronceverte,WV,24970-8380
vha_517HK,1780 Stadium Drive,Bluefield,WV,24701-3322
vha_517QA,150 Courthouse Road,Princeton,WV,24740-2419
vha_518,200 Springs Road,Bedford,MA,01730-1114
vha_518GA,225 Boston Street,Lynn,MA,01904-3123
vha_518GB,108 Merrimack Street,Haverhill,MA,01830-5201
vha_518GE,199 Main Street,Gloucester,MA,01930-6029
vha_519,300 Veterans Boulevard,Big Spring,TX,79720-5566
vha_519GA,8050 East Highway 191,Odessa,TX,79765-8615
vha_519GB,1601 North Turner Street,Hobbs,NM,88240-4337
vha_519GD,1205 North Sycamore Street,Fort Stockton,TX,79735-4122
vha_519HC,3850 Ridgemont Drive,Abilene,TX,79606-2728
vha_519HF,4240 Southwest Boulevarrd,San Angelo,TX,76904-5634
vha_520,400 Veterans Avenue,Biloxi,MS,39531-2410
vha_520BZ,790 Veterans Way,Pensacola,FL,32507-1000
vha_520GA,4444 Demetropolis Road,Mobile,AL,36619-9602
vha_520GB,2600 Veterans Way,Panama City Beach,FL,32408-7186
vha_520GC,100 Veterans Way,Eglin Air Force Base,FL,32542-1038
vha_520QA,140 Richard Jackson Boulevard,Panama City Beach,FL,32407-2512
vha_521,700 South 19th Street,Birmingham,AL,35233-1927
vha_521GA,"500 Markaview Road, Northwest",Huntsville,AL,35805-3652
vha_521GC,422 Cox Boulevard,Sheffield,AL,35660-4000
vha_521GD,206 Rescia Avenue,Gadsden,AL,35906-5933
vha_521GE,96 Ali Way,Oxford,AL,36203-1835
vha_521GF,1454 Jones Dairy Road,Jasper,AL,35501-6164
vha_521GG,"975 Ninth Avenue, Southwest",Bessemer,AL,35022-7841
vha_521GH,"151 9th Avenue, Northwest",Childersburg,AL,35044-1231
vha_521GI,100 Judy Smith Drive,Guntersville,AL,35976
vha_521GJ,2415 7th Avenue South,Birmingham,AL,35233-3317
vha_521QA,1720 University Boulevard,Birmingham,AL,35233-1816
vha_523,150 South Huntington Avenue,Boston,MA,02130-4817
vha_523A4,1400 VFW Parkway,West Roxbury,MA,02132-4927
vha_523A5,940 Belmont Street,Brockton,MA,02301-5596
vha_523BY,130 Marshall Road,Lowell,MA,01852-5130
vha_523BZ,251 Causeway Street,Boston,MA,02114-2104
vha_523GA,61 Lincoln Street,Framingham,MA,01702-8264
vha_523GC,110 West Squantam Street,Quincy,MA,02171-2122
vha_523GD,116 Long Pond Road,Plymouth,MA,02360-2663
vha_526,130 West Kingsbridge Road,Bronx,NY,10468-3904
vha_526GA,23 South Broadway,White Plains,NY,10601-3503
vha_526GB,124 New Main Street,Yonkers,NY,10701-4126
vha_526GD,4103 Queens Boulevard,Sunnyside,NY,11104-2801
vha_526QA,130 West Kingsbridge Road,Bronx,NY,10468-3904
vha_528,3495 Bailey Avenue,Buffalo,NY,14215-1129
vha_528A4,222 Richmond Avenue,Batavia,NY,14020-1227
vha_528A5,400 Fort Hill Avenue,Canandaigua,NY,14424-1159
vha_528A6,76 Veterans Avenue,Bath,NY,14810-0810
vha_528A7,800 Irving Avenue,Syracuse,NY,13210-2716
vha_528A8,113 Holland Avenue,Albany,NY,12208-3410
vha_528G2,7426 NYS Route 9N,Westport,NY,12993-2801
vha_528G3,109 North Main Street,Bainbridge,NY,13733-1212
vha_528G4,1316 College Avenue,Elmira,NY,14901-1169
vha_528G5,47 East Genesee Street,Auburn,NY,13021-4027
vha_528G6,2623 State Highway 30A,Fonda,NY,12068-5961
vha_528G7,159 Jefferson Heights,Catskill,NY,12414-1237
vha_528G8,3458 Riverside Drive,Wellsville,NY,14895-9581
vha_528G9,1451 Dryden Road,Freeville,NY,13068-9633
vha_528GB,608 West 3rd Street,Jamestown,NY,14701-4705
vha_528GC,1170 Central Avenue,Dunkirk,NY,14048-3424
vha_528GD,2201 Pine Avenue,Niagara Falls,NY,14301-2300
vha_528GE,465 Westfall Road,Rochester,NY,14620-4645
vha_528GK,5725 South Transit Road,Lockport,NY,14094-5864
vha_528GL,6100 St. Lawrence Centre,Massena,NY,13662-3214
vha_528GM,125 Brookley Road,Rome,NY,13441-4301
vha_528GN,203 Court Street,Binghamton,NY,13901-3601
vha_528GO,144 Eastern Boulevard,Watertown,NY,13601-3132
vha_528GP,437 State Route 104E,Oswego,NY,13126-2998
vha_528GQ,1234 Abbott Road,Lackawanna,NY,14218-1944
vha_528GQ01,15 Commerce Drive,Springville,NY,14141-1000
vha_528GR,465 North Union Street,Olean,NY,14760-2658
vha_528GT,101 Ridge Street,Glens Falls,NY,12801-3624
vha_528GV,80 Sharron Avenue,Plattsburgh,NY,12901-4785
vha_528GW,1346 Gerling Street,Schenectady,NY,12308-1702
vha_528GX,295 River Street,Troy,NY,12180-3215
vha_528GY,963 Route 146,Clifton Park,NY,12065-4397
vha_528GZ,324 Plaza Road,Kingston,NY,12401-2975
vha_528QA,2963 Main Street,Buffalo,NY,14214-1003
vha_528QB,1325 Main Street,Buffalo,NY,14209-1988
vha_528QC,260 Calkins Road,Rochester,NY,14623-4210
vha_528QE,24 Maple View Lane,Coudersport,PA,16915-9527
vha_528QF,1835 Shumway Hill Road,Wellsboro,PA,16901-6840
vha_528QG,620 Erie Boulevard West,Syracuse,NY,13204-2445
vha_528QH,572 South Salina Street,Syracuse,NY,13202-3220
vha_528QI,910 Erie Boulevard East,Syracuse,NY,13210-1060
vha_528QK,33 Depot Street,Saranac Lake,NY,12983-1497
vha_528QN,19472 US Route 11,Watertown,NY,13601-5367
vha_529,353 North Duffy Road,Butler,PA,16001-1138
vha_529A4,325 New Castle Road,Butler,PA,16001-2480
vha_529GA,295 North Kerrwood Drive,Hermitage,PA,16148-5207
vha_529GB,1750 New Butler Road,New Castle,PA,16101-3184
vha_529GC,11 Hilltop Plaza,Kittanning,PA,16201-8905
vha_529GD,56 Clarion Plaza,Monroe Township,PA,16214-8575
vha_529GF,900 Commonwealth Drive,Cranberry Township,PA,16066-5019
vha_531,500 West Fort Street,Boise,ID,83702-4501
vha_531GE,260 2nd Avenue East,Twin Falls,ID,83301-6242
vha_531GG,4521 Thomas Jefferson Street,Caldwell,ID,83605-5100
vha_531GH,635 Highway 20 North,Hines,OR,97738-9462
vha_531GI,815 North 6th East,Mountain Home,ID,83647-2207
vha_531GJ,705 Lena Street,Salmon,ID,83467-4208
vha_534,109 Bee Street,Charleston,SC,29401-5799
vha_534BY,1170 Shawnee Street,Savannah,GA,31419-1618
vha_534GB,3381 Phillis Boulevard,Myrtle Beach,SC,29577-1560
vha_534GC,1 Pinckney Boulevard,Beaufort,SC,29902-6122
vha_534GD,2418 NNPTC Circle,Goose Creek,SC,29445-6314
vha_534GE,500 East Oglethorpe Highway,Hinesville,GA,31313-2804
vha_534GF,9237 University Boulevard,North Charleston,SC,29406-9189
vha_534QA,1101 Johnson Avenue,Myrtle Beach,SC,29577-1893
vha_534QB,9229 University Boulevard,North Charleston,SC,29406-9150
vha_534QC,2424 City Hall Lane,North Charleston,SC,29406-6538
vha_537,820 South Damen Avenue,Chicago,IL,60612-3728
vha_537BY,9301 Madison Street,Crown Point,IN,46307-7745
vha_537GA,30 East 15th Street,Chicago Heights,IL,60411-3204
vha_537GD,211 East Ontario Street,Chicago,IL,60611-3468
vha_537HA,7731 South Halsted Street,Chicago,IL,60620-2412
vha_537QA,1141 South California Avenue,Chicago,IL,60612-9998
vha_538,17273 State Route 104,Chillicothe,OH,45601-9718
vha_538GA,88 North Plains Road,The Plains,OH,45780-1162
vha_538GB,4038 Rhodes Avenue,New Boston,OH,45662-5527
vha_538GC,27843 State Route 7,Marietta,OH,45750-9060
vha_538GD,1703 North Memorial Drive,Lancaster,OH,43130-1634
vha_538GE,2146 Southgate Parkway,Cambridge,OH,43725-3082
vha_538GF,448 West Main Street,Wilmington,OH,45177-2121
vha_538QA,17273 State Route 104,Chillicothe,OH,45601-9718
vha_539,3200 Vine Street,Cincinnati,OH,45220-2213
vha_539A4,1000 South Fort Thomas Avenue,Fort Thomas,KY,41075-2305
vha_539GA,103 Landmark Drive,Bellevue,KY,41073-1399
vha_539GB,4600 Beechwood Road,Cincinnati,OH,45244-1809
vha_539GC,1600 Flossie Drive,Greendale,IN,47025-8424
vha_539GD,7310 Turfway Road,Florence,KY,41042-1385
vha_539GE,1750 South Erie Highway,Hamilton,OH,45011-4118
vha_539GF,474 Home Street,Georgetown,OH,45121-1459
vha_539QA,3200 Vine Street,Cincinnati,OH,45220-2213
vha_539QB,2929 Highland Avenue,Cincinnati,OH,45219-2463
vha_539QC,909 Vine Street,Cincinnati,OH,45202-1105
vha_539QD,4600 Smith Road,Norwood,OH,45212-2784
vha_540,1 Medical Center Drive,Clarksburg,WV,26301-4155
vha_540GA,260 Spruce Street,Parsons,WV,26287-1015
vha_540GB,2311 Ohio Avenue,Parkersburg,WV,26101-2559
vha_540GC,40 Reston Place,Gassaway,WV,26624-7899
vha_540GD,40 Commerce Drive,Westover,WV,26501-3952
vha_540HK,1 Medical Center Drive,Clarksburg,WV,26301-4155
vha_541,10701 East Boulevard,Cleveland,OH,44106-1702
vha_541BY,733 Market Avenue South,Canton,OH,44702-1018
vha_541BZ,2031 Belmont Avenue,Youngstown,OH,44505-2401
vha_541GB,5255 North Abbe Road,Sheffield Village,OH,44035-1451
vha_541GC,1912 Hayes Avenue,Sandusky,OH,44870-5557
vha_541GD,1025 South Trimble Road,Mansfield,OH,44906-3427
vha_541GF,35000 Kaiser Court,Willoughby,OH,44094-3382
vha_541GG,55 West Waterloo Road,Akron,OH,44319-1116
vha_541GH,15655 State Route 170,Calcutta,OH,43920-9672
vha_541GI,"1460 Tod Avenue, Northwest",Warren,OH,44485-2407
vha_541GJ,1260 Monroe Avenue,New Philadelphia,OH,44663-4147
vha_541GK,6751 North Chestnut Street,Ravenna,OH,44266-3903
vha_541GL,8787 Brookpark Road,Parma,OH,44129-6809
vha_541GM,8901 Superior Avenue,Cleveland,OH,44106
vha_541QA,111 East Voris Street,Akron,OH,44311-1513
vha_541QB,7000 Euclid Avenue,Cleveland,OH,44103-4014
vha_541QC,10701 East Boulevard,Cleveland,OH,44106-1702
vha_541QD,10701 East Boulevard,Cleveland,OH,44106-1702
vha_541QE,10701 East Boulevard,Cleveland,OH,44106-1702
vha_541QF,10701 East Boulevard,Cleveland,OH,44106-1702
vha_542,1400 Black Horse Hill Road,Coatesville,PA,19320-2096
vha_542GA,4883 West Chester Pike,Newtown Square,PA,19073-2213
vha_542GE,11 Independence Drive,Spring City,PA,19475-1239
vha_544,6439 Garners Ferry Road,Columbia,SC,29209-1638
vha_544BZ,41 Park Creek Drive,Greenville,SC,29605-4270
vha_544GB,1822 Sally Hill Farms Boulevard,Florence,SC,29501-6987
vha_544GC,2670 Mills Park Drive,Rock Hill,SC,29732-1836
vha_544GD,3030 North Highway 81,Anderson,SC,29621-2009
vha_544GE,1767 Village Park Drive,Orangeburg,SC,29118-2475
vha_544GF,407 North Salem Avenue,Sumter,SC,29150-4115
vha_544GG,279 North Grove Medical Park Drive,Spartanburg,SC,29303-4222
vha_544HK,6439 Garners Ferry Road,Columbia,SC,29209-1638
vha_546,1201 Northwest 16th Street,Miami,FL,33125-1624
vha_546BZ,9800 West Commercial Boulevard,Sunrise,FL,33351-4325
vha_546GA,1492 West Flagler Street,Miami,FL,33135-2209
vha_546GB,1300 Douglas Circle,Key West,FL,33040-4536
vha_546GC,950 Krome Avenue,Homestead,FL,33030-4443
vha_546GD,7369 Sheridan Street,Hollywood,FL,33024-2776
vha_546GE,105662 Overseas Highway,Key Largo,FL,33037-3010
vha_546GF,3702 Washington Street,Hollywood,FL,33021-8283
vha_546GH,2100 Southwest 10th Street,Deerfield Beach,FL,33442-7690
vha_548,7305 North Military Trail,West Palm Beach,FL,33410-6400
vha_548GA,1901 South 25th Street,Fort Pierce,FL,34947-4711
vha_548GB,4800 Linton Boulevard,Delray Beach,FL,33445-6597
vha_548GC,3501 Southeast Willoughby Boulevard,Stuart,FL,34997-5059
vha_548GD,901 Meadows Road,Boca Raton,FL,33433-2300
vha_548GE,372 17th Street,Vero Beach,FL,32960-5690
vha_548GF,1201 North Parrot Avenue,Okeechobee,FL,34972-1936
vha_548QA,128 Southwest Chamber Court,Port Saint Lucie,FL,34986-3496
vha_549,4500 South Lancaster Road,Dallas,TX,75216-7167
vha_549A4,1201 East 9th Street,Bonham,TX,75418-4059
vha_549A5,2300 Marie Curie Boulevard,Garland,TX,75042-5706
vha_549BY,2201 Southeast Loop 820,Fort Worth,TX,76119-5863
vha_549GD,2223 Colorado Boulevard,Denton,TX,76205-7523
vha_549GE,1713 South FM 51,Decatur,TX,76234-3642
vha_549GF,1210 Paluxy Medical Circle,Granbury,TX,76048-5699
vha_549GH,4006 Wellington Road,Greenville,TX,75401-7829
vha_549GJ,3811 North US Highway 75,Sherman,TX,75090-2580
vha_549GK,4243 South Polk Street,Dallas,TX,75224-4928
vha_549GL,3804 15th Street,Plano,TX,75075-4752
vha_549GM,2737 Sherman Street,Grand Prairie,TX,75051-1027
vha_549HK,4500 South Lancaster Road,Dallas,TX,75216-7167
vha_549QA,4900 South Lancaster Road,Dallas,TX,75216-7402
vha_549QB,1518 East Lancaster Road,Fort Worth,TX,76102-6774
vha_549QC,7916 South Broadway Avenue,Tyler,TX,75703-5275
vha_550,1900 East Main Street,Danville,IL,61832-5100
vha_550BY,7717 North Orange Prairie Road,Peoria,IL,61615-9323
vha_550GA,792 North Sunnyside Road,Decatur,IL,62522-1156
vha_550GD,5850 South 6th Street,Springfield,IL,62703-5162
vha_550GF,501 Lakeland Boulevard,Mattoon,IL,61938-5283
vha_550GG,207 Hamilton Road,Bloomington,IL,61704-7527
vha_552,4100 West Third Street,Dayton,OH,45428-9000
vha_552GA,4337 North Union Road,Middletown,OH,45005-5211
vha_552GB,750 West High Street,Lima,OH,45801-2967
vha_552GC,1010 North J Street,Richmond,IN,47374-6052
vha_552GD,1620 North Limestone Street,Springfield,OH,45503-2624
vha_552GF,4881 Sugar Maple Drive,Wright Patterson AFB,OH,45433-7541
vha_552QC,4100 West Third Street,Dayton,OH,45428-9000
vha_553,4646 John R Street,Detroit,MI,48201-1916
vha_553BU,4777 East Outer Drive,Detroit,MI,48234-3241
vha_553GA,7470 Brockway Road,Yale,MI,48097-3458
vha_553GB,44200 Woodward Avenue,Pontiac,MI,48341-5045
vha_553QA,301 Piquette Street,Detroit,MI,48202-3513
vha_554,1700 North Wheeling Street,Aurora,CO,80045-7211
vha_554A4,2600 Oakshire Lane,Pueblo,CO,81001-5671
vha_554A5,1055 Clermont Street,Denver,CO,80220-3808
vha_554BU,7350 West Eastman Place,Lakewood,CO,80227-5006
vha_554GB,13701 East Mississippi Avenue,Aurora,CO,80012-3697
vha_554GC,1020 Johnson Road,Golden,CO,80401-6002
vha_554GD,4776 Eagleridge Circle,Pueblo,CO,81008-1667
vha_554GE,3141 Centennial Boulevard,Colorado Springs,CO,80907-4094
vha_554GF,622 Del Sol Drive,Alamosa,CO,81101-8548
vha_554GG,1100 Carson Avenue,La Junta,CO,81050-2772
vha_554GH,1401 South Main Street,Lamar,CO,81052-9525
vha_554GI,1177 Rose Avenue,Burlington,CO,80807-1756
vha_554GJ,4545 East 9th Avenue,Denver,CO,80220-3901
vha_554QA,3836 York Street,Denver,CO,80205-3540
vha_554QB,14400 East Jewell Avenue,Aurora,CO,80012-5689
vha_554QC,920 Rush Drive,Salida,CO,81201-9669
vha_556,3001 Greenbay Road,North Chicago,IL,60064-3048
vha_556GA,1942 Dempster Street,Evanston,IL,60202-1016
vha_556GC,3715 Municipal Drive,McHenry,IL,60050-5483
vha_556GD,8207 22nd Avenue,Kenosha,WI,53143-6206
vha_557,1826 Veterans Boulevard,Dublin,GA,31021-3620
vha_557GA,5566 Thomaston Road,Macon,GA,31220-8118
vha_557GB,814 Radford Boulevard,Albany,GA,31704-1130
vha_557GC,2249 Vinson Highway Southeast,Milledgeville,GA,31061-4807
vha_557GE,1111 Glynco Parkway,Brunswick,GA,31525-7932
vha_557GF,1824 Ridge Avenue North,Tifton,GA,31794-3441
vha_557HA,2370 South Houston Lake Road,Kathleen,GA,31047-5400
vha_558,508 Fulton Street,Durham,NC,27705-3875
vha_558GA,401 Moye Boulevard,Greenville,NC,27834-2885
vha_558GB,3305 Sungate Boulevard,Raleigh,NC,27610-2871
vha_558GC,5420 Highway 70 West,Morehead City,NC,28557-4510
vha_558GD,1830 Hillandale Road,Durham,NC,27705-2670
vha_558GE,1824 Hillandale Road,Durham,NC,27705-2650
vha_558GF,3040 Hammond Business Place,Raleigh,NC,27603-3666
vha_558GG,2600 Atlantic Avenue,Raleigh,NC,27604-1502
vha_558GH,11618 US 70 Business Highway West,Clayton,NC,27520-2276
vha_558QA,8081 Arco Corporate Drive,Raleigh,NC,27617-2041
vha_561,385 Tremont Avenue,East Orange,NJ,07018-1023
vha_561A4,151 Knollcroft Road,Lyons,NJ,07939-5001
vha_561BY,20 Washington Place,Newark,NJ,07102-3127
vha_561BZ,970 Route 70,Brick,NJ,08724-3502
vha_561GA,3635 Quakerbridge Road,Hamilton,NJ,08619-1247
vha_561GD,385 Prospect Avenue,Hackensack,NJ,07601-2570
vha_561GE,115 Christopher Columbus Drive,Jersey City,NJ,07302-3551
vha_561GF,14 Wills Way,Piscataway,NJ,08854-3770
vha_561GH,540 West Hanover Avenue,Morristown,NJ,07960-2500
vha_561GI,55 North Gilbert Street,Tinton Falls,NJ,07701-4961
vha_561GJ,11 Getty Avenue,Paterson,NJ,07503-2650
vha_561GK,222 High Street,Newton,NJ,07860-9604
vha_562,135 East 38th Street,Erie,PA,16504-1559
vha_562GA,16954 Conneaut Lake Road,Meadville,PA,16335-3738
vha_562GB,2044 Lambros Lane,Ashtabula,OH,44004-2700
vha_562GC,23 Kennedy Street,Bradford,PA,16701-2065
vha_562GD,464 Allegheny Boulevard,Franklin,PA,16323-6264
vha_562GE,3 Farm Colony Drive,Warren,PA,16365-5209
vha_564,1100 North College Avenue,Fayetteville,AR,72703-1944
vha_564BY,1850 West Republic Road,Springfield,MO,65807-5730
vha_564GA,814 US Highway 62-65 North,Harrison,AR,72601-2149
vha_564GB,1500 Dodson Avenue,Fort Smith,AR,72917-5128
vha_564GC,5571 North Gretna Road,Branson,MO,65616-7287
vha_564GD,2713 West Commercial Street,Ozark,AR,72949-3409
vha_564GE,1569 North Main Street,Jay,OK,74346-2903
vha_564GF,3015 South Connecticut Avenue,Joplin,MO,64804-3035
vha_564QA,216 East Township Street,Fayetteville,AR,72703-2818
vha_564QB,180 East Sunbridge Drive,Fayetteville,AR,72703-2830
vha_565,2300 Ramsey Street,Fayetteville,NC,28301-3856
vha_565GA,4006 Henderson Drive,Jacksonville,NC,28546-0055
vha_565GC,1705 Gardner Road,Wilmington,NC,28405-8873
vha_565GD,100 Jefferson Street,Hamlet,NC,28345-3100
vha_565GE,139 Three Hunts Drive,Pembroke,NC,28372-6800
vha_565GF,2610 Hospital Road,Goldsboro,NC,27534-9423
vha_565GG,3112 Tramway Road,Sanford,NC,27330-7142
vha_565GH,18 Doctors Circle,Supply,NC,28462-4089
vha_565GJ,306 Brynn Marr Road,Jacksonville,NC,28546-7023
vha_565GL,7300 South Raeford Road,Fayetteville,NC,28304-6162
vha_565GM,4 Josh Court,Jacksonville,NC,28546-5253
vha_565GN,2580 Henderson Drive,Jacksonville,NC,28546-5252
vha_565QA,2301 Robeson Street,Fayetteville,NC,28305-5640
vha_565QB,2300 Ramsey Street,Fayetteville,NC,28301-3856
vha_565QC,2300 Ramsey Street,Fayetteville,NC,28301-7704
vha_565QD,4101 Raeford Road,Fayetteville,NC,28304-3359
vha_565QE,2817 Reilly Road,Fort Bragg,NC,28310-0001
vha_568,113 Comanche Road,Fort Meade,SD,57741-1002
vha_568A4,500 North Fifth Street,Hot Springs,SD,57747-1480
vha_568GA,3625 5th Street,Rapid City,SD,57701-6008
vha_568GB,1615 North Harrison,Pierre,SD,57501-2383
vha_568GB01,602 1st Street Northeast,Wessington Springs,SD,57382-2166
vha_568HA,1124 Washington Boulevard,Newcastle,WY,82701-2972
vha_568HB,300 East 8th Street,Gordon,NE,69343-1123
vha_568HF,Hospital Road-Pine Ridge Indian Reservation,Pine Ridge,SD,57770
vha_568HH,601 5th Avenue,Scottsbluff,NE,69361-3581
vha_568HJ,153 South Main Street,Mission,SD,57555
vha_568HK,24348 Fox Ridge Road,Eagle Butte,SD,57625-8507
vha_568HP,660 West 2nd Street,Winner,SD,57580-1218
vha_570,2615 East Clinton Avenue,Fresno,CA,93703-2223
vha_570GA,340 East Yosemite Avenue,Merced,CA,95340-9167
vha_570GB,1050 North Cherry Street,Tulare,CA,93274-2251
vha_570GC,40597 Westlake Drive,Oakhurst,CA,93644-9024
vha_573,1601 Southwest Archer Road,Gainesville,FL,32608-1135
vha_573A4,619 South Marion Avenue,Lake City,FL,32025-5808
vha_573A5,280 Child Street,Jacksonville,FL,32214-0001
vha_573BU,1604 Southeast 3rd Avenue,Gainesville,FL,32641-7346
vha_573BY,1536 North Jefferson Street,Jacksonville,FL,32209-6525
vha_573GA,2841 North Patterson Street,Valdosta,GA,31602-1890
vha_573GD,1515 East Silver Springs Boulevard,Ocala,FL,34470-6856
vha_573GE,195 Southpark Boulevard,Saint Augustine,FL,32086-5134
vha_573GF,2181 East Orange Avenue,Tallahassee,FL,32311-6144
vha_573GI,8900 Southeast 165th Mulberry Lane,The Villages,FL,32162-5884
vha_573GJ,2603 Osborne Road,St. Marys,GA,31558-3843
vha_573GK,4970 Highway 90,Marianna,FL,32446-6802
vha_573GL,400 North State Road 19,Palatka,FL,32177-2449
vha_573GM,515B City Boulevard,Waycross,GA,31501-8016
vha_573GN,1224 North Peacock Avenue,Perry,FL,32347-2117
vha_573GO,400 College Drive,Middleburg,FL,32068-8525
vha_573QA,620 Northwest 16th Street,Gainesville,FL,32601-4034
vha_573QB,3401 Northwest 98th Street,Gainesville,FL,32606-5010
vha_573QC,5415 Southwest 64th Street,Gainesville,FL,32608-9605
vha_573QD,5533 Southwest 64th Street,Gainesville,FL,32608-9608
vha_573QE,5571 Southwest 64th Street,Gainesville,FL,32608-9608
vha_573QF,825 Northwest 23rd Avenue,Gainesville,FL,32609-3568
vha_573QG,6900 Southpoint Drive North,Jacksonville,FL,32216-6185
vha_573QH,3307 Southwest 26th Avenue,Ocala,FL,34474-7843
vha_573QJ,3901 University Boulevard South,Jacksonville,FL,32216-4312
vha_573QK,484 South West Commerce Drive,Lake City,FL,32025-1588
vha_575,2121 North Avenue,Grand Junction,CO,81501-6428
vha_575GA,154 Colorado Avenue,Montrose,CO,81401-3651
vha_575GB,1111 West Victory Way,Craig,CO,81625-2945
vha_575QA,2425 South Grand Avenue,Glenwood Springs,CO,81601-4181
vha_575QB,702 South Main Street,Moab,UT,84532-2943
vha_575QC,2121 North Avenue,Grand Junction,CO,81501-6428
vha_575QD,428 28 Road,Grand Junction,CO,81501-7900
vha_578,5000 South 5th Avenue,Hines,IL,60141-3030
vha_578GA,1201 Eagle Street,Joliet,IL,60432-2031
vha_578GC,581 William Latham Drive,Bourbonnais,IL,60914-2450
vha_578GD,161 South Lincolnway,North Aurora,IL,60542-1659
vha_578GE,4885 Hoffman Boulevard,Hoffman Estates,IL,60192-3726
vha_578GF,4461 North Progress Village,Peru,IL,61354-1109
vha_578GG,10201 South Cicero Avenue,Oak Lawn,IL,60453-4023
vha_580,2002 Holcombe Boulevard,Houston,TX,77030-4211
vha_580BU,7329 Fannin Street,Houston,TX,77030-4805
vha_580BY,3420 Veterans Circle,Beaumont,TX,77707-2552
vha_580BZ,2206 North John Redditt Drive,Lufkin,TX,75904-1776
vha_580GC,3828 Avenue N,Galveston,TX,77550-6614
vha_580GD,690 South Loop 336 West,Conroe,TX,77304-3320
vha_580GE,750 Westgreen Boulevard,Katy,TX,77450-2799
vha_580GF,208 South Oak Drive,Lake Jackson,TX,77566-5789
vha_580GG,22001 Southwest Freeway,Richmond,TX,77469-7002
vha_580GH,1200 West Main Street,Tomball,TX,77375-5522
vha_580GJ,9300 Emmett F. Lowery Expressway,Texas City,TX,77591-2134
vha_580QB,2002 Holcombe Boulevard,Houston,TX,77030-4211
vha_581,1540 Spring Valley Drive,Huntington,WV,25704-9300
vha_581GA,5230 KY Route 321,Prestonsburg,KY,41653-9169
vha_581GB,700 Technology Drive,South Charleston,WV,25309-8571
vha_581GG,323A Upper River Road,Gallipolis,OH,45631-1840
vha_581GH,2867 Route 65,Williamson,WV,25661-9199
vha_581QA,624 Ninth Street,Huntington,WV,25701-2122
vha_581QB,1540 Spring Valley Drive,Huntington,WV,25704-9300
vha_583,1481 West Tenth Street,Indianapolis,IN,46202-2884
vha_583BU,9045 East 59th Street,Indianapolis,IN,46216-1030
vha_583GA,380 West Honey Creek Drive,Terre Haute,IN,47802-3720
vha_583GB,2100 South Liberty Drive,Bloomington,IN,47403-5147
vha_583GC,2200 John R. Wooden Drive,Martinsville,IN,46151-1863
vha_583GD,3850 Shore Drive,Indianapolis,IN,46254-2610
vha_583GE,3851 North River Road,West Lafayette,IN,47906-3762
vha_583GF,3791 10th Street,Edinburgh,IN,46124-2553
vha_583GG,30 West Rampart Street,Shelbyville,IN,46176-8846
vha_583QA,1332 Arch Haven Avenue,Bloomington,IN,47403-2079
vha_583QB,777 North Meridian Street,Indianapolis,IN,46204-1421
vha_583QC,4612 South Springhill Junction,Terre Haute,IN,47802-1035
vha_583QD,5315 Lafayette Road,Indianapolis,IN,46254-1618
vha_583QE,2669 Cold Spring Road,Indianapolis,IN,46222-6211
vha_583QF,300 Highway 361,Crane,IN,47522-5001
vha_585,325 East H Street,Iron Mountain,MI,49801-4760
vha_585GA,787 Market Street,Hancock,MI,49930-1163
vha_585GB,639 West Kemp Street,Rhinelander,WI,54501-3879
vha_585GC,1110 10th Avenue,Menominee,MI,49858-3058
vha_585GD,629 West Cloverland Drive,Ironwood,MI,49938-1070
vha_585GF,813 East Lakeshore Drive,Manistique,MI,49854-1683
vha_585GG,2002 Minneapolis Avenue,Gladstone,MI,49837-2027
vha_585HA,1414 West Fair Avenue,Marquette,MI,49855-5406
vha_585HB,509 Osborn Boulevard,Sault Saint Marie,MI,49783-2071
vha_586,1500 East Woodrow Wilson Avenue,Jackson,MS,39216-5116
vha_586BU,5354 I-55 South Frontage Road East,Jackson,MS,39272-9119
vha_586GA,405 West Adams Street,Kosciusko,MS,39090-3617
vha_586GB,2103 13th Street,Meridian,MS,39301-4045
vha_586GC,1502 South Colorado Street,Greenville,MS,38703-7219
vha_586GD,5003 Hardy Street,Hattiesburg,MS,39402-1331
vha_586GE,105 Northgate Drive,Natchez,MS,39120-9162
vha_586GF,824 Alabama Street,Columbus,MS,39702-5436
vha_586GG,1308 Harrison Avenue,McComb,MS,39648-2830
vha_586QA,1500 East Woodrow Wilson Avenue,Jackson,MS,39216-5116
vha_586QB,6522 Dogwood View Parkway,Jackson,MS,39213-7858
vha_589,4801 Linwood Boulevard,Kansas City,MO,64128-2226
vha_589A4,800 Hospital Drive,Columbia,MO,65201-5297
vha_589A5,2200 Southwest Gage Boulevard,Topeka,KS,66622-0001
vha_589A6,4101 4th Street Trafficway,Leavenworth,KS,66048-5014
vha_589A7,5500 East Kellogg Drive,Wichita,KS,67218-1607
vha_589G1,702 East Young Street,Warrensburg,MO,64093-9610
vha_589G2,2201 Summerlon Circle,Dodge City,KS,67801-2985
vha_589G3,555 West 15th Street,Liberal,KS,67901-2467
vha_589G4,207B East 7th Street,Hays,KS,67601-4152
vha_589G5,1907 Harding Drive,Parsons,KS,67357-8111
vha_589G7,1625 East 30th Street,Hutchinson,KS,67502-1226
vha_589G8,3430 West Edgewood Drive,Jefferson City,MO,65109-6961
vha_589GB,209 Cunningham Parkway,Belton,MO,64012-5138
vha_589GC,501 South Hospital Drive,Paola,KS,66071-1850
vha_589GD,322 South Prewitt Street,Nevada,MO,64772-3803
vha_589GE,506 Rosewood Drive,Kirksville,MO,63501-2437
vha_589GF,700 GW Lane Street,Waynesville,MO,65583-2325
vha_589GH,940 Executive Drive,Osage Beach,MO,65065-3497
vha_589GI,3302 South Belt Highway,St. Joseph,MO,64503-1534
vha_589GJ,21 North 12th Street,Kansas City,KS,66102-5161
vha_589GM,629 South Plummer,Chanute,KS,66720-1928
vha_589GP,421 South Maple Street,Garnett,KS,66032-1334
vha_589GR,1169 Southwind Drive,Junction City,KS,66441-2644
vha_589GU,4821 Quail Crest Place,Lawrence,KS,66049-3839
vha_589GV,902 South Horton Street,Fort Scott,KS,66701-2438
vha_589GW,1410 East Iron Avenue,Salina,KS,67401-3285
vha_589GX,3460 South Clark Street,Mexico,MO,65265-4124
vha_589GY,207 Matlock Drive,St. James,MO,65559-1034
vha_589GZ,1111 Euclid Drive,Cameron,MO,64429-2005
vha_589HK,4801 East Linwood Boulevard,Kansas City,MO,64128-2226
vha_589JA,3320 West 10th Street,Sedalia,MO,65301-2111
vha_589JB,197 North McCleary Road,Excelsior Springs,MO,64024-8490
vha_589JC,6830 Anderson Street,Shawnee,KS,66226
vha_589JD,1240 Banning Street,Marshfield,MO,65706-2390
vha_589JE,2303 Higgins Road,Platte City,MO,64079-7101
vha_589JF,4251 Northern Avenue,Kansas City,MO,64133-1593
vha_589QA,10500 Mastin Street,Overland Park,KS,66207-5717
vha_589QB,949 South Parklane,Wichita,KS,67218-3210
vha_589QC,935 South Parklane,Wichita,KS,67218-3210
vha_589QD,5500 East Kellogg Drive,Wichita,KS,67218-1607
vha_590,100 Emancipation Drive,Hampton,VA,23667-0001
vha_590GB,244 Clearfield Boulevard,Virginia Beach,VA,23462-1816
vha_590GC,1845 West City Drive,Elizabeth City,NC,27909-9633
vha_590GD,1987 South Military Highway,Chesapeake,VA,23320-4422
vha_590GE,600 Crawford Street,Portsmouth,VA,23704-3820
vha_590QA,100 Emancipation Drive,Hampton,VA,23667-0001
vha_590QB,100 Emancipation Drive,Hampton,VA,23667-0001
vha_593,6900 North Pecos Road,North Las Vegas,NV,89086-4400
vha_593GC,220 South Lola Lane,Pahrump,NV,89048-0835
vha_593GD,3968 North Rancho Drive,Las Vegas,NV,89130-3412
vha_593GE,1020 South Boulder Highway,Henderson,NV,89015-8533
vha_593GF,7235 South Buffalo Drive,Las Vegas,NV,89113-4040
vha_593GG,4461 East Charleston Boulevard,Las Vegas,NV,89104-5537
vha_593GH,3650 South Pointe Circle,Laughlin,NV,89029-0423
vha_593QC,3525 West Cheyenne Avenue,North Las Vegas,NV,89032-8212
vha_595,1700 South Lincoln Avenue,Lebanon,PA,17042-7529
vha_595GA,5070 Ritter Road,Mechanicsburg,PA,17055-4824
vha_595GC,212 Willow Valley Lakes Drive,Willow Street,PA,17584-9668
vha_595GD,2762 Century Boulevard,Wyomissing,PA,19610-3345
vha_595GE,2251 Eastern Boulevard,York,PA,17402-2917
vha_595GF,1410 Laurel Boulevard,Pottsville,PA,17901-1427
vha_595QA,1 Garrison Road,Annville,PA,17003-5002
vha_596,2250 Leestown Road,Lexington,KY,40511-1052
vha_596A4,1101 Veterans Drive,Lexington,KY,40502-2235
vha_596GA,300 Medpark Drive,Somerset,KY,42503-3479
vha_596GB,333 Beacon Hill Road,Morehead,KY,40351-6182
vha_596GC,210 Black Gold Boulevard,Hazard,KY,41701-2620
vha_596GD,209 Pauline Drive,Berea,KY,40403-8889
vha_598,4300 West Seventh Street,Little Rock,AR,72205-5446
vha_598A0,2200 Fort Roots Drive,North Little Rock,AR,72114-1707
vha_598GA,759 Highway 62 E,Mountain Home,AR,72653-3209
vha_598GB,1702 North West Avenue,El Dorado,AR,71730-3867
vha_598GC,177 Sawtooth Oak Street,Hot Springs,AR,71901-7160
vha_598GD,"300 Morrow Street, South",Mena,AR,71953-2523
vha_598GE,4747 Dusty Lake Drive,Pine Bluff,AR,71603-9086
vha_598GF,1120 South Main Street,Searcy,AR,72143-7319
vha_598GG,1520 East Dave Ward Drive,Conway,AR,72032-9642
vha_598GH,3106 West 2nd Court,Russellville,AR,72801-4503
vha_598QA,1000 Main Street,Little Rock,AR,72201-3820
vha_598QB,4300 West Seventh Street,Little Rock,AR,72205-5446
vha_600,5901 East Seventh Street,Long Beach,CA,90822-5201
vha_600GA,2569 West Woodland Drive,Anaheim,CA,92801-2608
vha_600GB,1506 Brookhollow Drive,Santa Ana,CA,92705-5405
vha_600GC,2001 River Avenue,Long Beach,CA,90806-3622
vha_600GD,10330 Pioneer Boulevard,Santa Fe Springs,CA,90670-6012
vha_600GE,23719 Moulton Parkway,Laguna Hills,CA,92653-5422
vha_600GF,1149 West 190th Street,Gardena,CA,90248-4321
vha_600QA,888 West Santa Ana Boulevard,Santa Ana,CA,92701-4561
vha_603,800 Zorn Avenue,Louisville,KY,40206-1433
vha_603GA,289 Ireland Avenue,Fort Knox,KY,40121-5111
vha_603GB,4347 Security Parkway,New Albany,IN,47150-6419
vha_603GC,3934 North Dixie Highway,Louisville,KY,40216-4176
vha_603GD,9208 Taylorsville Road,Louisville,KY,40299
vha_603GE,3430 Newburg Road,Louisville,KY,40218-3483
vha_603GF,619 West Main Street,Clarkson,KY,42726-7044
vha_603GG,1467 North Scott Valley Drive,Scottsburg,IN,47170-7795
vha_603GH,1911 Highway 227,Carrollton,KY,41008-8037
vha_605,11201 Benton Street,Loma Linda,CA,92357-1000
vha_605BZ,26001 Redlands Boulevard,Redlands,CA,92373-7762
vha_605GA,12138 Industrial Boulevard,Victorville,CA,92392-4757
vha_605GB,28078 Baxter Road,Murrieta,CA,92563-1405
vha_605GC,41-990 Cook Street,Palm Desert,CA,92211-6100
vha_605GD,2045 Compton Avenue,Corona,CA,92881-7286
vha_605GE,8599 Haven Avenue,Rancho Cucamonga,CA,91730-4849
vha_605QA,1273 West Hobson Way,Blythe,CA,92225-1423
vha_607,2500 Overlook Terrace,Madison,WI,53705-2254
vha_607GC,1141 Black Bridge Road,Janesville,WI,53545-1092
vha_607GD,1670 South Boulevard,Baraboo,WI,53913-2937
vha_607GE,215 Corporate Drive,Beaver Dam,WI,53916-3124
vha_607GF,750 Kiwanis Drive,Freeport,IL,61032-7119
vha_607GG,1 Science Court,Madison,WI,53711-1055
vha_607HA,816 Featherstone Road,Rockford,IL,61107-6300
vha_608,718 Smyth Road,Manchester,NH,03104-7007
vha_608GA,302 Newmarket Street,Portsmouth,NH,03803-0157
vha_608GC,5 Terrascape Parkway,Somersworth,NH,03878-1115
vha_608GD,71 Hobbs Street,Conway,NH,03818-8109
vha_608HA,630 West Main Street,Tilton,NH,03276-5047
vha_610,1700 East 38th Street,Marion,IN,46953-4568
vha_610A4,2121 Lake Avenue,Fort Wayne,IN,46805-5100
vha_610BY,1540 Trinity Place,Mishawaka,IN,46545-5006
vha_610GB,3401 North Morrison Road,Muncie,IN,47304-5568
vha_610GC,2606 Peddlers Village Road,Goshen,IN,46526-1004
vha_610GD,750 North Broadway,Peru,IN,46970-1027
vha_610QA,2500 East State Boulevard,Fort Wayne,IN,46805-4728
vha_610QB,340 Columbia Place,South Bend,IN,46601-2339
vha_612A4,10535 Hospital Way,Mather,CA,95655-4200
vha_612B4,351 Hartnell Avenue,Redding,CA,96002-1845
vha_612BY,2221 Martin Luther King Jr. Way,Oakland,CA,94612-1318
vha_612GD,103 Bodin Circle,Travis AFB,CA,94535-1801
vha_612GE,201 Walnut Avenue,Mare Island,CA,94592-1107
vha_612GF,150 Muir Road,Martinez,CA,94553-4668
vha_612GG,1601 Concord Avenue,Chico,CA,95928-9486
vha_612GH,5342 Dudley Boulevard,McClellan Park,CA,95652-1012
vha_612GI,425 Plumas Boulevard,Yuba City,CA,95991-5074
vha_612GJ,101 East Oberlin Road,Yreka,CA,96097-9645
vha_612GK,11985 Heritage Oaks Place,Auburn,CA,95603-2413
vha_612QB,525 21st Street,Oakland,CA,94612-1605
vha_612QC,760 Cypress Avenue,Redding,CA,96001-2732
vha_612QD,2860 Howe Road,Martinez,CA,94553-4000
vha_613,510 Butler Avenue,Martinsburg,WV,25405-9990
vha_613GA,200 Glen Street,Cumberland,MD,21502-2573
vha_613GB,1101 Opal Court,Hagerstown,MD,21740-5941
vha_613GC,170 Prosperity Drive,Winchester,VA,22602-5356
vha_613GD,91 Pine Street,Franklin,WV,26807
vha_613GE,15 Grant Street,Petersburg,WV,26847-1613
vha_613GF,1755 South High Street,Harrisonburg,VA,22801-1553
vha_613GG,1433 Porter Street,Frederick,MD,21702-9211
vha_614,1030 Jefferson Avenue,Memphis,TN,38104-2127
vha_614GA,1114 Commonwealth Blvd,Tupelo,MS,38804-4753
vha_614GB,2908 South Caraway Road,Jonesboro,AR,72401-7306
vha_614GC,1700 Crescent Meadows Drive,Holly Springs,MS,38635-7417
vha_614GD,70 Harbert Drive North,Savannah,TN,38372-3451
vha_614GE,3461 Austin Peay Highway,Memphis,TN,38128-3801
vha_614GF,1689 Nonconnah Boulevard,Memphis,TN,38132-2105
vha_614GG,180 Old Hickory Boulevard,Jackson,TN,38305-2500
vha_614GI,1067 Vendall Road,Dyersburg,TN,38024-1622
vha_614GN,125 Quarles Lane,West Helena,AR,72390-1923
vha_614QA,1407 Union Avenue,Memphis,TN,38104-3627
vha_618,One Veterans Drive,Minneapolis,MN,55417-2309
vha_618BY,3520 Tower Avenue,Superior,WI,54880-5335
vha_618GA,1212 Heckman Court,St. James,MN,56081-8702
vha_618GB,990 West 41st Street,Hibbing,MN,55746-3041
vha_618GD,1725 Legacy Parkway,Maplewood,MN,55109-5434
vha_618GE,475 Chippewa Mall Drive,Chippewa Falls,WI,54729-5047
vha_618GG,3551 Commercial Drive South West,Rochester,MN,55902-2876
vha_618GH,10369 State Highway 27,Hayward,WI,54843-2530
vha_618GI,7545 Veterans Drive,Ramsey,MN,55303-7500
vha_618GJ,1111 Shakopee Town Square,Shakopee,MN,55379-1908
vha_618GK,1665 West Main Street,Albert Lea,MN,56007-1868
vha_618GL,1201 Harmon Place,Minneapolis,MN,55403-2043
vha_618GM,2700A College Drive,Rice Lake,WI,54868-2449
vha_618GN,1961 Premier Drive,Mankato,MN,56001-6494
vha_618QA,1 Federal Drive,Fort Snelling,MN,55111-4080
vha_618QB,720 East Miners Drive,Ely,MN,55731-1400
vha_619,215 Perry Hill Road,Montgomery,AL,36109-3725
vha_619A4,2400 Hospital Road,Tuskegee,AL,36083-5001
vha_619GA,1310 13th Avenue,Columbus,GA,31901-2335
vha_619GB,2020 Alexander Drive,Dothan,AL,36301-3004
vha_619GD,301 Andrews Avenue,Fort Rucker,AL,36362-5107
vha_619GE,159 Whetstone Street,Monroeville,AL,36460-2625
vha_619GF,8105 Veterans Way,Montgomery,AL,36117-3879
vha_619QA,3753 Ross Clark Circle,Dothan,AL,36303-2291
vha_619QB,6635 Bass Road,Fort Benning,GA,31905-5602
vha_620,2094 Albany Post Road,Montrose,NY,10548-1454
vha_620A4,41 Castle Point Road,Wappingers Falls,NY,12590-7004
vha_620GA,345 North Main Street,New City,NY,10956-4312
vha_620GB,1875 Route 6,Carmel,NY,10512-2316
vha_620GD,30 Hatfield Lane,Goshen,NY,10924-6768
vha_620GE,100 Pike Street,Port Jervis,NY,12771-1831
vha_620GF,55 Sturgis Road,Monticello,NY,12701-1225
vha_620GG,488 Freedom Plains Road,Poughkeepsie,NY,12603-2690
vha_620GH,2881 Church Street,Pine Plains,NY,12567-5545
vha_620QA,2094 Albany Post Road,Montrose,NY,10548-1454
vha_620QC,2094 Albany Post Road,Montrose,NY,10548-1454
vha_621,Corner of Lamont Street and Veterans Way,Mountain Home,TN,37684
vha_621BY,8033 Ray Mears Boulevard,Knoxville,TN,37919-5458
vha_621GA,401 Scenic Drive,Rogersville,TN,37857-2466
vha_621GC,654 Highway 58 East,Norton,VA,24273-3002
vha_621GG,925 East Morris Boulevard,Morristown,TN,37813-2499
vha_621GI,1124 Blanton Drive,Sevierville,TN,37862-5049
vha_621GJ,2426 Lee Highway,Bristol,VA,24202-5967
vha_621GK,130 Independence Lane,LaFollette,TN,37766-3031
vha_621GO,1141 Cold Springs Road,Mountain City,TN,37683-4032
vha_621QA,32613 Wilderness Road,Jonesville,VA,24263
vha_621QB,4451 Lee Highway,Marion,VA,24354-9998
vha_621QC,1941 Lover's Gap Lane,Vansant,VA,24656-9998
vha_621QD,1557 Downtown West Boulevard,Knoxville,TN,37919-5407
vha_621QE,1521 Downtown West Boulevard,Knoxville,TN,37919-5458
vha_621QF,500 Washington Avenue,Johnson City,TN,37604-5518
vha_623,1011 Honor Heights Drive,Muskogee,OK,74401-1318
vha_623BY,9322 East 41st Street,Tulsa,OK,74145-3721
vha_623GA,2 East Clark Bass Boulevard,McAlester,OK,74501-4282
vha_623GB,269 South 7th Street,Vinita,OK,74301-3737
vha_623GC,901 South East Washington Street,Idabel,OK,74745-3333
vha_623QA,2414 East Shawnee Road,Muskogee,OK,74403-1530
vha_623QB,10159 East 11th Street,Tulsa,OK,74128-1530
vha_623QC,5110 South Yale Avenue,Tulsa,OK,74134-7401
vha_626,1310 24th Avenue South,Nashville,TN,37212-2637
vha_626A4,3400 Lebanon Pike,Murfreesboro,TN,37129-1237
vha_626GA,1406 Donelson Parkway,Dover,TN,37058-3730
vha_626GC,600 US 31 West Bypass,Bowling Green,KY,42101-4905
vha_626GE,782 Weatherly Drive,Clarksville,TN,37043-8941
vha_626GF,6098 Debra Road,Chattanooga,TN,37411-5702
vha_626GG,225 Von Karman Road,Arnold Air Force Base,TN,37389
vha_626GH,851 South Willow Avenue,Cookeville,TN,38501-4223
vha_626GJ,1002 South Virginia Street,Hopkinsville,KY,42240-3579
vha_626GK,1014 South Chancery Street,McMinnville,TN,37110-3704
vha_626GL,2305 North Gateway Avenue,Harriman,TN,37748-8709
vha_626GM,833 Nashville Highway,Columbia,TN,38401-2443
vha_626GN,1320 Decatur Pike,Athens,TN,37303-2418
vha_626GO,2 International Plaza Drive,Nashville,TN,37217-5150
vha_626GP,419 Steam Plant Road,Gallatin,TN,37066-3027
vha_626QA,1818 Albion Street,Nashville,TN,37208-2918
vha_626QB,1919 Charlotte Avenue,Nashville,TN,37203-2219
vha_626QC,1208 Pointe Centre,Chattanooga,TN,37421-3989
vha_626QD,250 Glenis Drive,Murfreesboro,TN,37129-5160
vha_626QE,260 Glenis Drive,Murfreesboro,TN,37129-5102
vha_626QF,2292 Dalton Drive,Clarksville,TN,37043-8961
vha_629,2400 Canal Street,New Orleans,LA,70119-6535
vha_629BY,7968 Essen Park Avenue,Baton Rouge,LA,70809-7439
vha_629GA,6433 West Park Avenue,Houma,LA,70364-2238
vha_629GB,1131 South Morrison Boulevard,Hammond,LA,70403-5409
vha_629GC,60491 Doss Drive,Slidell,LA,70460-4972
vha_629GD,4004 West Airline Highway,Reserve,LA,70084-5712
vha_629GE,603 Haifleigh Street,Franklin,LA,70538-3734
vha_629GF,521 Ontario Street,Bogalusa,LA,70427-3845
vha_629QA,7850 Anselmo Lane,Baton Rouge,LA,70810-1101
vha_630,423 East 23rd Street,New York,NY,10010-5011
vha_630A4,800 Poly Place,Brooklyn,NY,11209-7104
vha_630A5,179-00 Linden Boulevard,Queens,NY,11424-1468
vha_630GA,55 West 125th Street,New York,NY,10027-4544
vha_630GB,1150 South Avenue,Staten Island,NY,10314-3404
vha_630QA,179-00 Linden Boulevard,Jamaica,NY,11434-1468
vha_630QB,179-00 Linden Boulevard,Jamaica,NY,11434-1468
vha_631,421 North Main Street,Leeds,MA,01053-9764
vha_631BY,25 Bond Street,Springfield,MA,01104-3401
vha_631GC,73 Eagle Street,Pittsfield,MA,01201-4714
vha_631GD,143 Munson Street,Greenfield,MA,01301-9694
vha_631GE,605 Lincoln Street,Worcester,MA,01605-1901
vha_631GF,881 Main Street,Fitchburg,MA,01420-3008
vha_631QA,377 Plantation Street,Worcester,MA,01605-2300
vha_631QB,55 North Lake Avenue,Worcester,MA,01605-2300
vha_632,79 Middleville Road,Northport,NY,11768-2200
vha_632GA,2201 Hempstead Turnpike,East Meadow,NY,11554-1859
vha_632HA,99 South Central Avenue,Valley Stream,NY,11580-5409
vha_632HB,300 Center Drive,Riverhead,NY,11901-3393
vha_632HC,132 East Main Street,Bay Shore,NY,11706-8302
vha_632HD,4 Phyllis Drive,Patchogue,NY,11772-2900
vha_632QA,79 Middleville Road,Northport,NY,11768-2290
vha_632QB,79 Middleville Road,Northport,NY,11768-2200
vha_635,921 Northeast 13th Street,Oklahoma City,OK,73104-5007
vha_635GA,4303 Pitman Street,Fort Sill,OK,73503-4473
vha_635GB,2600 Central Freeway,Wichita Falls,TX,76306-2850
vha_635GC,1009 West Ferguson Avenue,Blackwell,OK,74631-5602
vha_635GD,717 Better Now Plaza,Ada,OK,74820-2279
vha_635GE,320 North Perkins Road,Stillwater,OK,74075-5513
vha_635GF,1604 North Main,Altus,OK,73521-2145
vha_635GG,401 South 3rd Street,Enid,OK,73701-5737
vha_635GH,315 West Gary Boulevard,Clinton,OK,73601-2835
vha_635GI,1020 24th Avenue Northwest,Norman,OK,73069-6341
vha_635GJ,1808 Commons Circle,Yukon,OK,73099-9518
vha_635HB,1235 12th Avenue Northwest,Ardmore,OK,73401-1850
vha_635QA,2915 Pine Ridge Road,Oklahoma City,OK,73120-6111
vha_635QB,7919 Mid-America Boulevard,Oklahoma City,OK,73135-6610
vha_635QC,1301 Northeast Fourteenth Street,Oklahoma City,OK,73117-2018
vha_635QD,2640 Miner Road,Fort Sill,OK,73503-4437
vha_635QE,7050 Air Depot,Tinker AFB,OK,73145-8716
vha_636,4101 Woolworth Avenue,Omaha,NE,68105-1850
vha_636A4,2201 North Broadwell Avenue,Grand Island,NE,68803-2153
vha_636A5,600 South 70th Street,Lincoln,NE,68510-2451
vha_636A6,3600 30th Street,Des Moines,IA,50310-5753
vha_636A8,601 Highway 6 West,Iowa City,IA,52246-2209
vha_636GA,3204 Raasch Drive,Norfolk,NE,68701-3455
vha_636GB,600 East Francis Street,North Platte,NE,69101-6796
vha_636GC,520 South Pierce Avenue,Mason City,IA,50401-2711
vha_636GD,101 Iowa Avenue West,Marshalltown,IA,50158-4768
vha_636GF,2826 West Locust Street,Davenport,IA,52804-3354
vha_636GG,6020 Broadway Street,Quincy,IL,62305-7919
vha_636GH,945 Tower Park Drive,Waterloo,IA,50701-9098
vha_636GI,310 Home Boulevard,Galesburg,IL,61401-7408
vha_636GJ,2600 Dodge Street,Dubuque,IA,52003-7159
vha_636GK,2419 2nd Avenue North,Fort Dodge,IA,50501-3602
vha_636GL,2206 Longo Drive,Bellevue,NE,68005-2977
vha_636GM,311 South Clark Street,Carroll,IA,51401-3086
vha_636GN,2230 Wiley Boulevard Southwest,Cedar Rapids,IA,52404-2364
vha_636GP,512 South Fremont Street,Shenandoah,IA,51601-1508
vha_636GQ,1118 Burlington Street,Holdrege,NE,68949-1705
vha_636GR,1607 North Lincoln Street,Knoxville,IA,50138-3399
vha_636GS,1009 East Pennsylvania Avenue,Ottumwa,IA,52501-2108
vha_636GT,406 Avenue C,Sterling,IL,61081-3407
vha_636GU,915 Short Street,Decorah,IA,52101-2412
vha_636GW,520 10th Avenue,Coralville,IA,52241-1910
vha_636GX,102 North 25th Street,Fort Dodge,IA,50501-4338
vha_636QA,825 Dorcas Street,Omaha,NE,68108-1160
vha_636QB,1223 Center Street,Des Moines,IA,50309-1016
vha_636QC,1535 First Avenue Southeast,Cedar Rapids,IA,52403-5123
vha_636QD,1 University Circle,Macomb,IL,61455-1367
vha_636QG,601 Highway 6 West,Iowa City,IA,52246-2209
vha_636QH,3600 30th Street,Des Moines,IA,50310-5753
vha_636QI,415 North Perry Street,Davenport,IA,52801-1617
vha_636QJ,400 South Clinton Street,Iowa City,IA,52240-4105
vha_637,1100 Tunnel Road,Asheville,NC,28805-2087
vha_637GA,647 Wayah Street,Franklin,NC,28734-3390
vha_637GB,2270 College Avenue,Forest City,NC,28043-2459
vha_637GC,2440 Century Place Southeast,Hickory,NC,28602-4031
vha_640,3801 Miranda Avenue,Palo Alto,CA,94304-1207
vha_640A0,795 Willow Road,Menlo Park,CA,94025-2539
vha_640A4,4951 Arroyo Road,Livermore,CA,94550-9650
vha_640BY,5855 Silver Creek Valley Place,San Jose,CA,95138-1059
vha_640GA,1350 41st Avenue,Capitola,CA,95010-3906
vha_640GB,13663 Mono Way,Sonora,CA,95370-2811
vha_640GC,39199 Liberty Street,Fremont,CA,94538-1501
vha_640HA,7777 South Freedom Road,French Camp,CA,95231-9694
vha_640HB,1225 Oakdale Road,Modesto,CA,95355-3357
vha_640HC,201 9th Street,Marina,CA,93933-6039
vha_640QA,795 Willow Road,Menlo Park,CA,94025-2539
vha_640QB,795 Willow Road,Menlo Park,CA,94025-2539
vha_642,3900 Woodland Avenue,Philadelphia,PA,19104-4551
vha_642BU,1425-1429 Snyder Avenue,Philadelphia,PA,19145-2317
vha_642GA,3000 Lincoln Drive,Marlton,NJ,08053-1500
vha_642GC,433 Caredean Drive,Horsham,PA,19044-1396
vha_642GD,211 County House Road,Sewell,NJ,08080-2525
vha_642GF,300 South Broadway,Camden,NJ,08103-1210
vha_642GH,6232 Market Street,Philadelphia,PA,19139-2922
vha_642QA,4219 Chestnut Street,Philadelphia,PA,19104-3014
vha_642QB,213 North 4th Street,Philadelphia,PA,19106-1801
vha_644,650 East Indian School Road,Phoenix,AZ,85012-1839
vha_644BY,3285 South Val Vista Drive,Gilbert,AZ,85297-7000
vha_644GA,13985 West Grand Avenue,Surprise,AZ,85374-3626
vha_644GB,5171 Cub Lake Road,Show Low,AZ,85901-7850
vha_644GC,9250 West Thomas Road,Phoenix,AZ,85037-3382
vha_644GD,903 East Highway 260,Payson,AZ,85541-4972
vha_644GE,9424 North 25th Avenue,Phoenix,AZ,85021-2714
vha_644GF,5860 South Hospital Drive,Globe,AZ,85501-9449
vha_644GG,11390 East Via Linda Road,Scottsdale,AZ,85259-4075
vha_644GH,5040 North 15th Avenue,Phoenix,AZ,85015-3328
vha_644QA,1500 East Thomas Road,Phoenix,AZ,85014-5748
vha_644QB,650 E. Indian School Road,Phoenix,AZ,85012-1892
vha_646,University Drive C,Pittsburgh,PA,15240-1003
vha_646A4,1010 Delafield Road,Pittsburgh,PA,15240-1005
vha_646GA,67800 Mall Ring Road,St. Clairsville,OH,43950-1703
vha_646GB,5274 Route 30,Greensburg,PA,15601-7833
vha_646GC,300 Brighton Avenue,Rochester,PA,15074-2135
vha_646GD,95 West Beau Street,Washington,PA,15301-6800
vha_646GE,627 Pittsburgh Road,Uniontown,PA,15401-2200
vha_648,3710 Southwest US Veterans Hospital Road,Portland,OR,97239-2964
vha_648A4,1601 East 4th Plain Boulevard,Vancouver,WA,98661-3753
vha_648GA,2650 Northeast Courtney Drive,Bend,OR,97701-7639
vha_648GB,1750 McGilchrist Street Southeast,Salem,OR,97302-1691
vha_648GD,91400 Neacoxie Street,Warrenton,OR,97146-7267
vha_648GE,1800 Northeast Market Drive,Fairview,OR,97024-7000
vha_648GF,1925 North East Stucki Avenue,Hillsboro,OR,97006-6945
vha_648GG,1750 Southwest Blankenship Road,West Linn,OR,97068-5100
vha_648GH,1010 Southwest Coast Highway,Newport,OR,97365-5215
vha_648GI,308 Southwest 1st Avenue,Portland,OR,97204-3432
vha_648GJ,704 Veterans Drive,The Dalles,OR,97058-9998
vha_648GK,4422 Northeast Devils Lake Boulevard,Lincoln City,OR,97367-5000
vha_649,500 Highway 89 North,Prescott,AZ,86313-5001
vha_649GA,2668 Hualapai Mountain Road,Kingman,AZ,86401-8387
vha_649GB,1300 West University Avenue,Flagstaff,AZ,86001-7228
vha_649GC,2035 Mesquite Avenue,Lake Havasu City,AZ,86403-5894
vha_649GD,41810 North Venture Drive,Anthem,AZ,85086-3169
vha_649GE,501 South Willard Street,Cottonwood,AZ,86326-8120
vha_649QA,Highway 191 and Hospital Drive,Chinle,AZ,86503-8000
vha_649QB,33 West Vista Drive,Holbrook,AZ,86025-1844
vha_649QD,801 North Navajo Drive,Page,AZ,86040-0801
vha_649QF,167 North Main Street,Tuba City,AZ,86045-0600
vha_649QG,Highway 264 Mile Post 388,Polacca,AZ,86042
vha_649QH,US Highway 160,Kayenta,AZ,86033
vha_650,830 Chalkstone Avenue,Providence,RI,02908-4738
vha_650GA,175 Elm Street,New Bedford,MA,02740-6006
vha_650GB,233 Stevens Street,Hyannis,MA,02601-3766
vha_650GD,One Corporate Place,Middletown,RI,02842-6406
vha_650QA,623 Atwells Avenue,Providence,RI,02909-7403
vha_650QB,75 Eagle Street,Providence,RI,02909-1012
vha_652,1201 Broad Rock Boulevard,Richmond,VA,23249-4915
vha_652GA,130 Executive Center Parkway,Fredericksburg,VA,22401-3100
vha_652GB,10401 Spotsylvania Avenue,Fredericksburg,VA,22408-8606
vha_652GE,590 Peter Jefferson Parkway,Charlottesville,VA,22911-4655
vha_652GF,1746 East Atlantic Street,Emporia,VA,23847-6584
vha_652GG,1201 Broad Rock Boulevard,Richmond,VA,23224-4915
vha_652GH,1201 Broad Rock Boulevard,Richmond,VA,23224-4915
vha_653,913 Northwest Garden Valley Boulevard,Roseburg,OR,97471-6523
vha_653BY,3355 Chad Drive,Eugene,OR,97408-7426
vha_653GA,2191 Marion Street,North Bend,OR,97459-2314
vha_653GB,840 Railroad Street,Brookings,OR,97415-9702
vha_653QA,211 East 7th Avenue,Eugene,OR,97401-2722
vha_654,975 Kirman Avenue,Reno,NV,89502-0993
vha_654GB,1330 Waterloo Lane,Gardnerville,NV,89410-5587
vha_654GC,1020 New River Parkway,Fallon,NV,89406-7811
vha_654GD,110 Bella Way,Susanville,CA,96130-9102
vha_654GE,1201 Corporate Boulevard,Reno,NV,89502-7162
vha_654GF,1140 Selmi Drive,Reno,NV,89512-4780
vha_654QA,2295 Kietzke Lane,Reno,NV,89502-3604
vha_654QB,350 Capitol Hill Avenue,Reno,NV,89502-2923
vha_654QC,3298 Traders Way,Winnemucca,NV,89445-3654
vha_654QD,3674 South Virginia Street,Reno,NV,89502-6017
vha_655,1500 Weiss Street,Saginaw,MI,48602-5251
vha_655GA,2782 South Otsego Avenue,Gaylord,MI,49735-9404
vha_655GB,701 US Highway 31 South,Traverse City,MI,49685-8016
vha_655GC,5671 Skeel Avenue,Oscoda,MI,48750-1535
vha_655GD,180 North State Street,Alpena,MI,49707-2847
vha_655GE,11775 North Isabella Road,Clare,MI,48617-9186
vha_655GF,1142 South Van Dyke Road,Bad Axe,MI,48413-9800
vha_655GG,1909 North Mitchell Street,Cadillac,MI,49601-1139
vha_655GH,14540 Mackinaw Highway,Mackinaw City,MI,49701-9507
vha_655GI,1680 Hartwick Pines Road,Grayling,MI,49738-9237
vha_655QA,4241 Barnard Road,Saginaw,MI,48603-1308
vha_656,4801 Veterans Drive,St. Cloud,MN,56303-2015
vha_656GA,722 Northwest 7th Street,Brainerd,MN,56401-2912
vha_656GB,1025 North 13th Street,Montevideo,MN,56265-1653
vha_656GC,515 22nd Avenue East,Alexandria,MN,56308-4652
vha_656QA,4801 Veterans Drive,St. Cloud,MN,56303-2015
vha_657,915 North Grand Boulevard,St. Louis,MO,63106-1621
vha_657A0,1 Jefferson Barracks Drive,St. Louis,MO,63125-4199
vha_657A4,1500 North Westwood Boulevard,Poplar Bluff,MO,63901-3318
vha_657A5,2401 West Main Street,Marion,IL,62959-1165
vha_657GA,1190 Fortune Boulevard,Shiloh,IL,62269-7358
vha_657GB,6854 Parker Road,Florissant,MO,63033-5313
vha_657GD,844 Waterbury Falls Drive,O'Fallon,MO,63368-2215
vha_657GF,1801 East State Route K,West Plains,MO,65775-6616
vha_657GG,2420 Linwood Drive,Paragould,AR,72450-6122
vha_657GH,3051 William Street,Cape Girardeau,MO,63703-6393
vha_657GI,1580 West Columbia Street,Farmington,MO,63640-3512
vha_657GJ,6211 East Waterford Boulevard,Evansville,IN,47715-2869
vha_657GK,4101 North Water Tower Place,Mount Vernon,IL,62864-6296
vha_657GL,2620 Perkins Creek Drive,Paducah,KY,42001-7494
vha_657GM,1011 Ford Avenue,Effingham,IL,62401-1701
vha_657GO,926 Veterans Drive,Hanson,KY,42413-9401
vha_657GP,3400 New Hartford Road,Owensboro,KY,42303-1705
vha_657GQ,1813 Willow Street,Vincennes,IN,47591-4267
vha_657GR,1253 Paris Road,Mayfield,KY,42066-4989
vha_657GS,1627 A Roy Drive,Washington,MO,63090-5008
vha_657GT,1130 East Walnut Street,Carbondale,IL,62901-5007
vha_657GU,608 Rollie Moore Drive,Harrisburg,IL,62946-2344
vha_657GV,903 South Kings Highway,Sikeston,MO,63801-4415
vha_657GW,300 Camp Road,Pocahontas,AR,72455-9131
vha_657GX,2727 Washington Avenue,St. Louis,MO,63103-1421
vha_657GY,4974 Manchester Avenue,St. Louis,MO,63110-2010
vha_657QA,3615 Olive Street,St. Louis,MO,63108-3604
vha_657QB,2600 Washington Boulevard,St. Louis,MO,63103-1420
vha_657QC,1301 Enterprise Way,Marion,IL,62959-4442
vha_657QD,3403 Heartland Street,Marion,IL,62959-6393
vha_657QE,310 West Losey Street,Scott Air Force Base,IL,62225-5250
vha_658,1970 Roanoke Boulevard,Salem,VA,24153-6404
vha_658GA,388 Ben Bolt Avenue,Tazewell,VA,24651-9700
vha_658GB,705 Piney Forest Road,Danville,VA,24540-2860
vha_658GC,1600 Lakeside Drive,Lynchburg,VA,24501-3116
vha_658GD,102 Lacy B. King Way,Staunton,VA,24401-4594
vha_658GE,165 Peppers Ferry Road,Wytheville,VA,24382-2070
vha_659,1601 Brenner Avenue,Salisbury,NC,28144-2515
vha_659BY,1695 Kernersville Medical Parkway,Kernersville,NC,27284-7159
vha_659BZ,3506 West Tyvola Road,Charlotte,NC,28208-7201
vha_659GA,8601 University East Drive,Charlotte,NC,28213-4353
vha_660,500 Foothill Boulevard,Salt Lake City,UT,84148-0001
vha_660GA,500 South 11th Avenue,Pocatello,ID,83201-4835
vha_660GB,982 Chambers Street,South Ogden,UT,84403-4571
vha_660GD,245 West 200 North,Roosevelt,UT,84066-2740
vha_660GE,1443 West 800 North,Orem,UT,84057-2883
vha_660GG,230 North 1680 East,St. George,UT,84790-2579
vha_660GJ,2750 South 5600 West,West Valley City,UT,84120-1254
vha_660GK,2719 Argent Avenue,Elko,NV,89801-8443
vha_660QA,640 South Woodruff Avenue,Idaho Falls,ID,83401-6471
vha_660QB,189 South 600 West,Price,UT,84501-2833
vha_660QC,5957 Fashion Point Drive,South Ogden,UT,84403-5108
vha_662,4150 Clement Street,San Francisco,CA,94121-1545
vha_662GA,3841 Brickway Boulevard,Santa Rosa,CA,95403-8226
vha_662GC,930 West Harris Street,Eureka,CA,95503-3927
vha_662GD,630 Kings Court,Ukiah,CA,95482-5003
vha_662GE,1001 Sneath Lane,San Bruno,CA,94066-2349
vha_662GF,401 3rd Street,San Francisco,CA,94107-1214
vha_662GG,15145 Lakeshore Drive,Clearlake,CA,95422-8106
vha_663,1660 South Columbian Way,Seattle,WA,98108-1532
vha_663A4,9600 Veterans Drive Southwest,Tacoma,WA,98493-0003
vha_663GA,13033 Bel-Red Road,Bellevue,WA,98005-2633
vha_663GB,9177 Ridgetop Boulevard NW,Silverdale,WA,98383-8519
vha_663GC,307 South 13th Street,Mount Vernon,WA,98274-4100
vha_663GD,151 Northeast Hampe Way,Chehalis,WA,98532-2403
vha_663GE,1114 Georgiana Street,Port Angeles,WA,98362-4212
vha_663GF,34617 11th Place South,Federal Way,WA,98003-8706
vha_663GG,12360 Lake City Way Northeast,Seattle,WA,98125-5447
vha_663HK,9600 Veterans Drive Southwest,Tacoma,WA,98493-0003
vha_664,3350 La Jolla Village Drive,San Diego,CA,92161-0002
vha_664BV,2121 San Diego Avenue,San Diego,CA,92110-2928
vha_664BY,8810 Rio San Diego Drive,San Diego,CA,92108-1698
vha_664GA,1115 South 4th Street,El Centro,CA,92243-4741
vha_664GB,1300 Rancho del Oro Drive,Oceanside,CA,92056-1729
vha_664GC,865 3rd Avenue,Chula Vista,CA,91911-1349
vha_664GD,815 East Pennsylvania Avenue,Escondido,CA,92025-3424
vha_664QA,8989 Rio San Diego Drive,San Diego,CA,92108-1605
vha_666,1898 Fort Road,Sheridan,WY,82801-8320
vha_666GB,4140 South Poplar Street,Casper,WY,82601-6104
vha_666GC,2300 Rose Lane,Riverton,WY,82501-2257
vha_666GD,1432 Rumsey Avenue,Cody,WY,82414
vha_666GE,604 Express Drive,Gillette,WY,82718-4112
vha_666GF,1401 Gateway Boulevard,Rock Springs,WY,82901-6727
vha_666QA,125 South Washington Street,Afton,WY,83110
vha_666QB,1565 South Highway 150,Evanston,WY,82930-5361
vha_666QC,510 South 15th Street,Worland,WY,82401-3538
vha_667,510 East Stoner Avenue,Shreveport,LA,71101-4243
vha_667GA,910 Realtor Road,Texarkana,AR,71854-1020
vha_667GB,1691 Bienville Drive,Monroe,LA,71201-3756
vha_667GC,1005 North Eastman Road,Longview,TX,75601-4231
